2026-052D               
1 68201U 26052D   26095.88769031  .00009739  00000+0  59237-3 0  9992
2 68201  97.5351 171.8161 0011760 190.5127 169.5858 15.10588059  3135
2026-052E               
1 68202U 26052E   26095.09277573  .00015605  00000+0  94666-3 0  9995
2 68202  97.5345 171.0418 0010463 202.2983 157.7793 15.10577677  3014
2026-052F               
1 68203U 26052F   26095.88419781  .00009611  00000+0  58066-3 0  9996
2 68203  97.5347 171.8266 0010771 186.6158 173.4932 15.10845209  3139
2026-052G               
1 68204U 26052G   26095.88354109  .00009694  00000+0  58499-3 0  9990
2 68204  97.5360 171.8227 0010333 189.2699 170.8342 15.10891283  3134
KZ-11 R/B               
1 68205U 26052H   26095.88182344  .00025580  20156-5  38542-3 0  9990
2 68205  97.3394 170.4263 0543486 305.8068  49.3774 14.67728443  3048
2026-052J               
1 68206U 26052J   26095.87147508  .00081086  29418-5  11795-2 0  9996
2 68206  97.3391 170.4376 0536811 305.7859  49.4563 14.69518989  3043
STARLINK-36986          
1 68207U 26053A   26095.82647767  .00113607  00000+0  58351-3 0  9990
2 68207  97.2848 331.4730 0001434  91.6183 268.5249 15.80914879  4343
STARLINK-37009          
1 68208U 26053B   26095.82572606  .00131403  00000+0  67268-3 0  9991
2 68208  97.2850 331.4737 0001516 118.2950 241.8472 15.80938943  4343
STARLINK-36948          
1 68209U 26053C   26095.82497566  .00114621  00000+0  58873-3 0  9998
2 68209  97.2847 331.4748 0001598  96.1587 263.9863 15.80911318  4326
STARLINK-37119          
1 68210U 26053D   26095.82422198  .00165712  00000+0  84515-3 0  9998
2 68210  97.2851 331.4757 0001212  85.6437 274.4970 15.80929581  4342
STARLINK-37120          
1 68211U 26053E   26095.82346968  .00170962  00000+0  87112-3 0  9998
2 68211  97.2851 331.4767 0001283  60.2449 299.8946 15.80935922  4322
STARLINK-37117          
1 68212U 26053F   26095.82272100  .00110527  00000+0  56826-3 0  9994
2 68212  97.2842 331.4772 0001227  75.2202 284.9202 15.80901792  4340
STARLINK-37116          
1 68213U 26053G   26095.82196629  .00097536  00000+0  50286-3 0  9994
2 68213  97.2849 331.4793 0001783  82.0727 278.0743 15.80876673  4349
STARLINK-35854          
1 68214U 26053H   26095.82121339  .00313434  00000+0  15646-2 0  9999
2 68214  97.2846 331.4802 0001649 136.7102 223.4296 15.81016579  4320
STARLINK-36272          
1 68215U 26053J   26095.83336806 -.01985154  00000+0 -23253-1 0  9997
2 68215  97.2838 331.4463 0001587 106.8736 215.7027 15.64730506  4271
STARLINK-37014          
1 68216U 26053K   26095.81971357  .00129004  00000+0  66110-3 0  9994
2 68216  97.2848 331.4822 0002075 110.5455 249.6036 15.80921408  4340
STARLINK-37011          
1 68217U 26053L   26095.81896096  .00121601  00000+0  62371-3 0  9991
2 68217  97.2846 331.4831 0001584  63.3438 296.7992 15.80922913  4345
