[{"OBJECT_NAME":"2026-052D","OBJECT_ID":"2026-052D","EPOCH":"2026-04-05T21:18:16.442784","MEAN_MOTION":15.10588059,"ECCENTRICITY":0.001176,"INCLINATION":97.5351,"RA_OF_ASC_NODE":171.8161,"ARG_OF_PERICENTER":190.5127,"MEAN_ANOMALY":169.5858,"EPHEMERIS_TYPE":0,"CLASSIFICATION_TYPE":"U","NORAD_CAT_ID":68201,"ELEMENT_SET_NO":999,"REV_AT_EPOCH":313,"BSTAR":0.00059237,"MEAN_MOTION_DOT":9.739e-5,"MEAN_MOTION_DDOT":0},{"OBJECT_NAME":"2026-052E","OBJECT_ID":"2026-052E","EPOCH":"2026-04-05T02:13:35.823072","MEAN_MOTION":15.10577677,"ECCENTRICITY":0.00104634,"INCLINATION":97.5345,"RA_OF_ASC_NODE":171.0418,"ARG_OF_PERICENTER":202.2983,"MEAN_ANOMALY":157.7793,"EPHEMERIS_TYPE":0,"CLASSIFICATION_TYPE":"U","NORAD_CAT_ID":68202,"ELEMENT_SET_NO":999,"REV_AT_EPOCH":301,"BSTAR":0.00094665779,"MEAN_MOTION_DOT":0.00015605,"MEAN_MOTION_DDOT":0},{"OBJECT_NAME":"2026-052F","OBJECT_ID":"2026-052F","EPOCH":"2026-04-05T21:13:14.690784","MEAN_MOTION":15.10845209,"ECCENTRICITY":0.0010771,"INCLINATION":97.5347,"RA_OF_ASC_NODE":171.8266,"ARG_OF_PERICENTER":186.6158,"MEAN_ANOMALY":173.4932,"EPHEMERIS_TYPE":0,"CLASSIFICATION_TYPE":"U","NORAD_CAT_ID":68203,"ELEMENT_SET_NO":999,"REV_AT_EPOCH":313,"BSTAR":0.00058066,"MEAN_MOTION_DOT":9.611e-5,"MEAN_MOTION_DDOT":0},{"OBJECT_NAME":"2026-052G","OBJECT_ID":"2026-052G","EPOCH":"2026-04-05T21:12:17.950176","MEAN_MOTION":15.10891283,"ECCENTRICITY":0.0010333,"INCLINATION":97.536,"RA_OF_ASC_NODE":171.8227,"ARG_OF_PERICENTER":189.2699,"MEAN_ANOMALY":170.8342,"EPHEMERIS_TYPE":0,"CLASSIFICATION_TYPE":"U","NORAD_CAT_ID":68204,"ELEMENT_SET_NO":999,"REV_AT_EPOCH":313,"BSTAR":0.00058499,"MEAN_MOTION_DOT":9.694e-5,"MEAN_MOTION_DDOT":0},{"OBJECT_NAME":"KZ-11 R/B","OBJECT_ID":"2026-052H","EPOCH":"2026-04-05T21:09:49.545216","MEAN_MOTION":14.67728443,"ECCENTRICITY":0.0543486,"INCLINATION":97.3394,"RA_OF_ASC_NODE":170.4263,"ARG_OF_PERICENTER":305.8068,"MEAN_ANOMALY":49.3774,"EPHEMERIS_TYPE":0,"CLASSIFICATION_TYPE":"U","NORAD_CAT_ID":68205,"ELEMENT_SET_NO":999,"REV_AT_EPOCH":304,"BSTAR":0.00038542,"MEAN_MOTION_DOT":0.0002558,"MEAN_MOTION_DDOT":2.0156e-6},{"OBJECT_NAME":"2026-052J","OBJECT_ID":"2026-052J","EPOCH":"2026-04-05T20:54:55.446912","MEAN_MOTION":14.69518989,"ECCENTRICITY":0.0536811,"INCLINATION":97.3391,"RA_OF_ASC_NODE":170.4376,"ARG_OF_PERICENTER":305.7859,"MEAN_ANOMALY":49.4563,"EPHEMERIS_TYPE":0,"CLASSIFICATION_TYPE":"U","NORAD_CAT_ID":68206,"ELEMENT_SET_NO":999,"REV_AT_EPOCH":304,"BSTAR":0.0011795,"MEAN_MOTION_DOT":0.00081086,"MEAN_MOTION_DDOT":2.9418e-6},{"OBJECT_NAME":"STARLINK-36986","OBJECT_ID":"2026-053A","EPOCH":"2026-04-05T19:50:07.670688","MEAN_MOTION":15.80914879,"ECCENTRICITY":0.0001434,"INCLINATION":97.2848,"RA_OF_ASC_NODE":331.473,"ARG_OF_PERICENTER":91.6183,"MEAN_ANOMALY":268.5249,"EPHEMERIS_TYPE":0,"CLASSIFICATION_TYPE":"U","NORAD_CAT_ID":68207,"ELEMENT_SET_NO":999,"REV_AT_EPOCH":434,"BSTAR":0.00058351,"MEAN_MOTION_DOT":0.00113607,"MEAN_MOTION_DDOT":0},{"OBJECT_NAME":"STARLINK-37009","OBJECT_ID":"2026-053B","EPOCH":"2026-04-05T19:49:02.731584","MEAN_MOTION":15.80938943,"ECCENTRICITY":0.0001516,"INCLINATION":97.285,"RA_OF_ASC_NODE":331.4737,"ARG_OF_PERICENTER":118.295,"MEAN_ANOMALY":241.8472,"EPHEMERIS_TYPE":0,"CLASSIFICATION_TYPE":"U","NORAD_CAT_ID":68208,"ELEMENT_SET_NO":999,"REV_AT_EPOCH":434,"BSTAR":0.00067268,"MEAN_MOTION_DOT":0.00131403,"MEAN_MOTION_DDOT":0},{"OBJECT_NAME":"STARLINK-36948","OBJECT_ID":"2026-053C","EPOCH":"2026-04-05T19:47:57.897024","MEAN_MOTION":15.80911318,"ECCENTRICITY":0.0001598,"INCLINATION":97.2847,"RA_OF_ASC_NODE":331.4748,"ARG_OF_PERICENTER":96.1587,"MEAN_ANOMALY":263.9863,"EPHEMERIS_TYPE":0,"CLASSIFICATION_TYPE":"U","NORAD_CAT_ID":68209,"ELEMENT_SET_NO":999,"REV_AT_EPOCH":432,"BSTAR":0.00058873,"MEAN_MOTION_DOT":0.00114621,"MEAN_MOTION_DDOT":0},{"OBJECT_NAME":"STARLINK-37119","OBJECT_ID":"2026-053D","EPOCH":"2026-04-05T19:46:52.779072","MEAN_MOTION":15.80929581,"ECCENTRICITY":0.0001212,"INCLINATION":97.2851,"RA_OF_ASC_NODE":331.4757,"ARG_OF_PERICENTER":85.6437,"MEAN_ANOMALY":274.497,"EPHEMERIS_TYPE":0,"CLASSIFICATION_TYPE":"U","NORAD_CAT_ID":68210,"ELEMENT_SET_NO":999,"REV_AT_EPOCH":434,"BSTAR":0.00084515,"MEAN_MOTION_DOT":0.00165712,"MEAN_MOTION_DDOT":0},{"OBJECT_NAME":"STARLINK-37120","OBJECT_ID":"2026-053E","EPOCH":"2026-04-05T19:45:47.780352","MEAN_MOTION":15.80935922,"ECCENTRICITY":0.0001283,"INCLINATION":97.2851,"RA_OF_ASC_NODE":331.4767,"ARG_OF_PERICENTER":60.2449,"MEAN_ANOMALY":299.8946,"EPHEMERIS_TYPE":0,"CLASSIFICATION_TYPE":"U","NORAD_CAT_ID":68211,"ELEMENT_SET_NO":999,"REV_AT_EPOCH":432,"BSTAR":0.00087112,"MEAN_MOTION_DOT":0.00170962,"MEAN_MOTION_DDOT":0},{"OBJECT_NAME":"STARLINK-37117","OBJECT_ID":"2026-053F","EPOCH":"2026-04-05T19:44:43.094400","MEAN_MOTION":15.80901792,"ECCENTRICITY":0.0001227,"INCLINATION":97.2842,"RA_OF_ASC_NODE":331.4772,"ARG_OF_PERICENTER":75.2202,"MEAN_ANOMALY":284.9202,"EPHEMERIS_TYPE":0,"CLASSIFICATION_TYPE":"U","NORAD_CAT_ID":68212,"ELEMENT_SET_NO":999,"REV_AT_EPOCH":434,"BSTAR":0.00056826,"MEAN_MOTION_DOT":0.00110527,"MEAN_MOTION_DDOT":0},{"OBJECT_NAME":"STARLINK-37116","OBJECT_ID":"2026-053G","EPOCH":"2026-04-05T19:43:37.887456","MEAN_MOTION":15.80876673,"ECCENTRICITY":0.0001783,"INCLINATION":97.2849,"RA_OF_ASC_NODE":331.4793,"ARG_OF_PERICENTER":82.0727,"MEAN_ANOMALY":278.0743,"EPHEMERIS_TYPE":0,"CLASSIFICATION_TYPE":"U","NORAD_CAT_ID":68213,"ELEMENT_SET_NO":999,"REV_AT_EPOCH":434,"BSTAR":0.00050286,"MEAN_MOTION_DOT":0.00097536,"MEAN_MOTION_DDOT":0},{"OBJECT_NAME":"STARLINK-35854","OBJECT_ID":"2026-053H","EPOCH":"2026-04-05T19:42:32.836896","MEAN_MOTION":15.81016579,"ECCENTRICITY":0.0001649,"INCLINATION":97.2846,"RA_OF_ASC_NODE":331.4802,"ARG_OF_PERICENTER":136.7102,"MEAN_ANOMALY":223.4296,"EPHEMERIS_TYPE":0,"CLASSIFICATION_TYPE":"U","NORAD_CAT_ID":68214,"ELEMENT_SET_NO":999,"REV_AT_EPOCH":432,"BSTAR":0.0015646,"MEAN_MOTION_DOT":0.00313434,"MEAN_MOTION_DDOT":0},{"OBJECT_NAME":"STARLINK-36272","OBJECT_ID":"2026-053J","EPOCH":"2026-04-05T20:00:03.000384","MEAN_MOTION":15.64730506,"ECCENTRICITY":0.0001587,"INCLINATION":97.2838,"RA_OF_ASC_NODE":331.4463,"ARG_OF_PERICENTER":106.8736,"MEAN_ANOMALY":215.7027,"EPHEMERIS_TYPE":0,"CLASSIFICATION_TYPE":"U","NORAD_CAT_ID":68215,"ELEMENT_SET_NO":999,"REV_AT_EPOCH":427,"BSTAR":-0.023253,"MEAN_MOTION_DOT":-0.01985154,"MEAN_MOTION_DDOT":0},{"OBJECT_NAME":"STARLINK-37014","OBJECT_ID":"2026-053K","EPOCH":"2026-04-05T19:40:23.252448","MEAN_MOTION":15.80921408,"ECCENTRICITY":0.0002075,"INCLINATION":97.2848,"RA_OF_ASC_NODE":331.4822,"ARG_OF_PERICENTER":110.5455,"MEAN_ANOMALY":249.6036,"EPHEMERIS_TYPE":0,"CLASSIFICATION_TYPE":"U","NORAD_CAT_ID":68216,"ELEMENT_SET_NO":999,"REV_AT_EPOCH":434,"BSTAR":0.0006611,"MEAN_MOTION_DOT":0.00129004,"MEAN_MOTION_DDOT":0},{"OBJECT_NAME":"STARLINK-37011","OBJECT_ID":"2026-053L","EPOCH":"2026-04-05T19:39:18.226944","MEAN_MOTION":15.80922913,"ECCENTRICITY":0.0001584,"INCLINATION":97.2846,"RA_OF_ASC_NODE":331.4831,"ARG_OF_PERICENTER":63.3438,"MEAN_ANOMALY":296.7992,"EPHEMERIS_TYPE":0,"CLASSIFICATION_TYPE":"U","NORAD_CAT_ID":68217,"ELEMENT_SET_NO":999,"REV_AT_EPOCH":434,"BSTAR":0.00062371,"MEAN_MOTION_DOT":0.00121601,"MEAN_MOTION_DDOT":0}]
